start=new Date('2023-02-28T00:00:00.000Z').valueOf();
sats=[{"GP_ID":"227191949","RCS_SIZE":"LARGE","LAUNCH_DATE":"2020-08-18","PERIAPSIS":"546.231","CLASSIFICATION_TYPE":"U","ARG_OF_PERICENTER":"69.6385","INCLINATION":"53.0503","OBJECT_TYPE":"PAYLOAD","REV_AT_EPOCH":"13937","NORAD_CAT_ID":"46142","BSTAR":"0.00027135000000","REF_FRAME":"TEME","MEAN_ELEMENT_THEORY":"SGP4","CENTER_NAME":"EARTH","MEAN_MOTION_DDOT":"0.0000000000000","OBJECT_ID":"2020-057AB","MEAN_MOTION_DOT":"0.00003764","OBJECT_NAME":"STARLINK-1597","DECAY_DATE":null,"FILE":"3846812","SITE":"AFETR","MEAN_ANOMALY":"290.4748","RA_OF_ASC_NODE":"241.2636","SEMIMAJOR_AXIS":"6925.296","TLE_LINE1":"1 46142U 20057AB  23058.77480053  .00003764  00000-0  27135-3 0  9994","PERIOD":"95.591","APOAPSIS":"548.090","EPHEMERIS_TYPE":"0","COUNTRY_CODE":"US","MEAN_MOTION":"15.06417302","TLE_LINE2":"2 46142  53.0503 241.2636 0001342  69.6385 290.4748 15.06417302139372","EPOCH":"2023-02-27T18:35:42.765792","ELEMENT_SET_NO":"999","TIME_SYSTEM":"UTC","ECCENTRICITY":"0.00013420"},{"GP_ID":"227190697","RCS_SIZE":"LARGE","LAUNCH_DATE":"2020-08-18","PERIAPSIS":"546.426","CLASSIFICATION_TYPE":"U","REV_AT_EPOCH":"12790","OBJECT_TYPE":"PAYLOAD","INCLINATION":"53.0529","ARG_OF_PERICENTER":"67.3269","NORAD_CAT_ID":"46144","REF_FRAME":"TEME","CENTER_NAME":"EARTH","MEAN_ELEMENT_THEORY":"SGP4","BSTAR":"0.00145020000000","MEAN_MOTION_DOT":"0.00021420","OBJECT_ID":"2020-057AD","MEAN_MOTION_DDOT":"0.0000000000000","OBJECT_NAME":"STARLINK-1606","FILE":"3846812","DECAY_DATE":null,"MEAN_ANOMALY":"292.7812","SITE":"AFETR","TLE_LINE1":"1 46144U 20057AD  23058.73977089  .00021420  00000-0  14502-2 0  9994","SEMIMAJOR_AXIS":"6925.166","RA_OF_ASC_NODE":"221.4193","PERIOD":"95.588","COUNTRY_CODE":"US","EPHEMERIS_TYPE":"0","APOAPSIS":"547.637","TLE_LINE2":"2 46144  53.0529 221.4193 0000874  67.3269 292.7812 15.06459431127907","MEAN_MOTION":"15.06459431","TIME_SYSTEM":"UTC","EPOCH":"2023-02-27T17:45:16.204896","ELEMENT_SET_NO":"999","ECCENTRICITY":"0.00008740"},{"PERIOD":"95.590","TLE_LINE1":"1 46146U 20057AF  23058.91855277  .00010227  00000-0  70393-3 0  9994","RA_OF_ASC_NODE":"240.6157","SEMIMAJOR_AXIS":"6925.266","MEAN_ANOMALY":"275.9680","SITE":"AFETR","FILE":"3846812","DECAY_DATE":null,"ECCENTRICITY":"0.00010830","EPOCH":"2023-02-27T22:02:42.959328","ELEMENT_SET_NO":"999","TIME_SYSTEM":"UTC","TLE_LINE2":"2 46146  53.0514 240.6157 0001083  84.1432 275.9680 15.06426831139400","MEAN_MOTION":"15.06426831","APOAPSIS":"547.881","EPHEMERIS_TYPE":"0","COUNTRY_CODE":"US","OBJECT_TYPE":"PAYLOAD","REV_AT_EPOCH":"13940","ARG_OF_PERICENTER":"84.1432","INCLINATION":"53.0514","CLASSIFICATION_TYPE":"U","PERIAPSIS":"546.381","LAUNCH_DATE":"2020-08-18","RCS_SIZE":"LARGE","GP_ID":"227190947","OBJECT_NAME":"STARLINK-1608","MEAN_MOTION_DOT":"0.00010227","MEAN_MOTION_DDOT":"0.0000000000000","OBJECT_ID":"2020-057AF","CENTER_NAME":"EARTH","REF_FRAME":"TEME","MEAN_ELEMENT_THEORY":"SGP4","BSTAR":"0.00070393000000","NORAD_CAT_ID":"46146"},{"PERIOD":"95.591","RA_OF_ASC_NODE":"242.4867","SEMIMAJOR_AXIS":"6925.284","TLE_LINE1":"1 46147U 20057AG  23058.50204287  .00006686  00000-0  46705-3 0  9993","SITE":"AFETR","MEAN_ANOMALY":"279.7965","DECAY_DATE":null,"FILE":"3846438","ECCENTRICITY":"0.00012210","EPOCH":"2023-02-27T12:02:56.503968","ELEMENT_SET_NO":"999","TIME_SYSTEM":"UTC","MEAN_MOTION":"15.06421152","TLE_LINE2":"2 46147  53.0532 242.4867 0001221  80.3162 279.7965 15.06421152139994","APOAPSIS":"547.994","EPHEMERIS_TYPE":"0","COUNTRY_CODE":"US","ARG_OF_PERICENTER":"80.3162","INCLINATION":"53.0532","OBJECT_TYPE":"PAYLOAD","REV_AT_EPOCH":"13999","CLASSIFICATION_TYPE":"U","PERIAPSIS":"546.303","LAUNCH_DATE":"2020-08-18","GP_ID":"227163843","RCS_SIZE":"LARGE","OBJECT_NAME":"STARLINK-1611","MEAN_MOTION_DDOT":"0.0000000000000","OBJECT_ID":"2020-057AG","MEAN_MOTION_DOT":"0.00006686","BSTAR":"0.00046705000000","CENTER_NAME":"EARTH","REF_FRAME":"TEME","MEAN_ELEMENT_THEORY":"SGP4","NORAD_CAT_ID":"46147"},{"REV_AT_EPOCH":"13966","OBJECT_TYPE":"PAYLOAD","ARG_OF_PERICENTER":"76.7522","INCLINATION":"53.0512","CLASSIFICATION_TYPE":"U","PERIAPSIS":"546.244","LAUNCH_DATE":"2020-08-18","GP_ID":"227192447","RCS_SIZE":"LARGE","OBJECT_NAME":"STARLINK-1616","MEAN_MOTION_DOT":"0.00030035","OBJECT_ID":"2020-057AH","MEAN_MOTION_DDOT":"0.0000000000000","REF_FRAME":"TEME","MEAN_ELEMENT_THEORY":"SGP4","CENTER_NAME":"EARTH","BSTAR":"0.00202340000000","NORAD_CAT_ID":"46148","PERIOD":"95.588","TLE_LINE1":"1 46148U 20057AH  23058.83929184  .00030035  00000-0  20234-2 0  9993","SEMIMAJOR_AXIS":"6925.164","RA_OF_ASC_NODE":"220.9749","MEAN_ANOMALY":"283.3593","SITE":"AFETR","FILE":"3846812","DECAY_DATE":null,"ECCENTRICITY":"0.00011330","TIME_SYSTEM":"UTC","EPOCH":"2023-02-27T20:08:34.814976","ELEMENT_SET_NO":"999","TLE_LINE2":"2 46148  53.0512 220.9749 0001133  76.7522 283.3593 15.06460245139662","MEAN_MOTION":"15.06460245","COUNTRY_CODE":"US","EPHEMERIS_TYPE":"0","APOAPSIS":"547.814"},{"CLASSIFICATION_TYPE":"U","OBJECT_TYPE":"PAYLOAD","REV_AT_EPOCH":"14094","ARG_OF_PERICENTER":"86.3123","INCLINATION":"53.0508","GP_ID":"227191197","RCS_SIZE":"LARGE","LAUNCH_DATE":"2020-08-18","PERIAPSIS":"546.263","MEAN_MOTION_DOT":"0.00017429","MEAN_MOTION_DDOT":"0.0000000000000","OBJECT_ID":"2020-057AJ","OBJECT_NAME":"STARLINK-1620","NORAD_CAT_ID":"46149","REF_FRAME":"TEME","MEAN_ELEMENT_THEORY":"SGP4","CENTER_NAME":"EARTH","BSTAR":"0.00118500000000","TLE_LINE1":"1 46149U 20057AJ  23058.85310225  .00017429  00000-0  11850-2 0  9992","RA_OF_ASC_NODE":"220.9003","SEMIMAJOR_AXIS":"6925.246","PERIOD":"95.590","FILE":"3846812","DECAY_DATE":null,"MEAN_ANOMALY":"273.8005","SITE":"AFETR","EPOCH":"2023-02-27T20:28:28.034400","ELEMENT_SET_NO":"999","TIME_SYSTEM":"UTC","ECCENTRICITY":"0.00012240","APOAPSIS":"547.959","EPHEMERIS_TYPE":"0","COUNTRY_CODE":"US","TLE_LINE2":"2 46149  53.0508 220.9003 0001224  86.3123 273.8005 15.06433484140946","MEAN_MOTION":"15.06433484"},{"RCS_SIZE":"LARGE","GP_ID":"227191447","LAUNCH_DATE":"2020-08-18","PERIAPSIS":"546.284","CLASSIFICATION_TYPE":"U","ARG_OF_PERICENTER":"90.3377","INCLINATION":"53.0497","REV_AT_EPOCH":"13940","OBJECT_TYPE":"PAYLOAD","NORAD_CAT_ID":"46150","BSTAR":"0.00061436000000","CENTER_NAME":"EARTH","MEAN_ELEMENT_THEORY":"SGP4","REF_FRAME":"TEME","OBJECT_ID":"2020-057AK","MEAN_MOTION_DDOT":"0.0000000000000","MEAN_MOTION_DOT":"0.00008887","OBJECT_NAME":"STARLINK-1629","DECAY_DATE":null,"FILE":"3846812","SITE":"AFETR","MEAN_ANOMALY":"269.7754","SEMIMAJOR_AXIS":"6925.277","RA_OF_ASC_NODE":"240.6350","TLE_LINE1":"1 46150U 20057AK  23058.91486874  .00008887  00000-0  61436-3 0  9999","PERIOD":"95.591","EPHEMERIS_TYPE":"0","COUNTRY_CODE":"US","APOAPSIS":"548.000","MEAN_MOTION":"15.06423209","TLE_LINE2":"2 46150  53.0497 240.6350 0001239  90.3377 269.7754 15.06423209139409","TIME_SYSTEM":"UTC","EPOCH":"2023-02-27T21:57:24.659136","ELEMENT_SET_NO":"999","ECCENTRICITY":"0.00012390"},{"PERIOD":"95.592","RA_OF_ASC_NODE":"221.9317","SEMIMAJOR_AXIS":"6925.322","TLE_LINE1":"1 46151U 20057AL  23058.62552559  .00008236  00000-0  57102-3 0  9995","SITE":"AFETR","MEAN_ANOMALY":"259.1168","DECAY_DATE":null,"FILE":"3846812","ECCENTRICITY":"0.00010300","EPOCH":"2023-02-27T15:00:45.410976","ELEMENT_SET_NO":"999","TIME_SYSTEM":"UTC","MEAN_MOTION":"15.06408706","TLE_LINE2":"2 46151  53.0537 221.9317 0001030 100.9937 259.1168 15.06408706139631","APOAPSIS":"547.900","COUNTRY_CODE":"US","EPHEMERIS_TYPE":"0","INCLINATION":"53.0537","ARG_OF_PERICENTER":"100.9937","OBJECT_TYPE":"PAYLOAD","REV_AT_EPOCH":"13963","CLASSIFICATION_TYPE":"U","LAUNCH_DATE":"2020-08-18","PERIAPSIS":"546.474","RCS_SIZE":"LARGE","GP_ID":"227192198","OBJECT_NAME":"STARLINK-1631","MEAN_MOTION_DDOT":"0.0000000000000","OBJECT_ID":"2020-057AL","MEAN_MOTION_DOT":"0.00008236","BSTAR":"0.00057102000000","REF_FRAME":"TEME","MEAN_ELEMENT_THEORY":"SGP4","CENTER_NAME":"EARTH","NORAD_CAT_ID":"46151"},{"OBJECT_NAME":"STARLINK-1634","MEAN_MOTION_DDOT":"0.0000000000000","OBJECT_ID":"2020-057AM","MEAN_MOTION_DOT":"0.00002276","BSTAR":"0.00017158000000","MEAN_ELEMENT_THEORY":"SGP4","CENTER_NAME":"EARTH","REF_FRAME":"TEME","NORAD_CAT_ID":"46152","ARG_OF_PERICENTER":"84.9517","INCLINATION":"53.0526","OBJECT_TYPE":"PAYLOAD","REV_AT_EPOCH":"13939","CLASSIFICATION_TYPE":"U","LAUNCH_DATE":"2020-08-18","PERIAPSIS":"546.493","GP_ID":"227191950","RCS_SIZE":"LARGE","ECCENTRICITY":"0.00009870","EPOCH":"2023-02-27T20:57:39.682944","ELEMENT_SET_NO":"999","TIME_SYSTEM":"UTC","MEAN_MOTION":"15.06412079","TLE_LINE2":"2 46152  53.0526 240.8097 0000987  84.9517 275.1585 15.06412079139392","APOAPSIS":"547.860","COUNTRY_CODE":"US","EPHEMERIS_TYPE":"0","PERIOD":"95.591","RA_OF_ASC_NODE":"240.8097","SEMIMAJOR_AXIS":"6925.312","TLE_LINE1":"1 46152U 20057AM  23058.87337596  .00002276  00000-0  17158-3 0  9990","SITE":"AFETR","MEAN_ANOMALY":"275.1585","DECAY_DATE":null,"FILE":"3846812"},{"MEAN_ANOMALY":"278.7935","SITE":"AFETR","FILE":"3846812","DECAY_DATE":null,"PERIOD":"95.589","TLE_LINE1":"1 46153U 20057AN  23058.77663334  .00023981  00000-0  16211-2 0  9996","SEMIMAJOR_AXIS":"6925.188","RA_OF_ASC_NODE":"221.2532","TLE_LINE2":"2 46153  53.0536 221.2532 0001181  81.3188 278.7935 15.06452245139659","MEAN_MOTION":"15.06452245","EPHEMERIS_TYPE":"0","COUNTRY_CODE":"US","APOAPSIS":"547.871","ECCENTRICITY":"0.00011810","TIME_SYSTEM":"UTC","EPOCH":"2023-02-27T18:38:21.120576","ELEMENT_SET_NO":"999","PERIAPSIS":"546.236","LAUNCH_DATE":"2020-08-18","GP_ID":"227190698","RCS_SIZE":"LARGE","REV_AT_EPOCH":"13965","OBJECT_TYPE":"PAYLOAD","ARG_OF_PERICENTER":"81.3188","INCLINATION":"53.0536","CLASSIFICATION_TYPE":"U","CENTER_NAME":"EARTH","MEAN_ELEMENT_THEORY":"SGP4","REF_FRAME":"TEME","BSTAR":"0.00162110000000","NORAD_CAT_ID":"46153","OBJECT_NAME":"STARLINK-1636","MEAN_MOTION_DOT":"0.00023981","OBJECT_ID":"2020-057AN","MEAN_MOTION_DDOT":"0.0000000000000"}];
